XRISM                   
1 57800U 23137A   24113.89534291  .00010247  00000+0  78815-3 0  9993
2 57800  31.0048   4.3923 0009951  18.3592 341.7401 15.00447817 34296
